{
  "type": "FeatureCollection",
  "features": [
    {
      "type": "Feature",
      "properties": {
        "norad_id": 44873,
        "name": "CSG-1",
        "group": "resource",
        "lat": -51.72463796044198,
        "lon": 179.80973633729764,
        "alt_km": 630.1693258155929,
        "timestamp": "2025-12-14T09:36:22.692279+00:00",
        "meta_object_name": "CSG-1",
        "meta_object_id": "2019-092A",
        "meta_epoch": "2025-12-13T16:01:11.318304",
        "meta_mean_motion": 14.82166148,
        "meta_eccentricity": 0.0001443,
        "meta_inclination": 97.881,
        "meta_ra_of_asc_node": 168.9777,
        "meta_arg_of_pericenter": 84.9836,
        "meta_mean_anomaly": 275.1542,
        "meta_ephemeris_type": 0,
        "meta_classification_type": "U",
        "meta_norad_cat_id": 44873,
        "meta_element_set_no": 999,
        "meta_rev_at_epoch": 32399,
        "meta_bstar": 0.00012284787,
        "meta_mean_motion_dot": 9.26e-06,
        "meta_mean_motion_ddot": 0,
        "tle_line1": "1 44873U 19092A   25347.66749211  .00000926  00000+0  12285-3 0  9991",
        "tle_line2": "2 44873  97.8810 168.9777 0001443  84.9836 275.1542 14.82166148323999"
      },
      "geometry": {
        "type": "Point",
        "coordinates": [
          179.80973633729764,
          -51.72463796044198
        ]
      }
    },
    {
      "type": "Feature",
      "properties": {
        "norad_id": 46277,
        "name": "NEMO-HD",
        "group": "resource",
        "lat": 81.90436633204524,
        "lon": -69.46906035731237,
        "alt_km": 436.62082551112417,
        "timestamp": "2025-12-14T09:36:22.692289+00:00",
        "meta_object_name": "NEMO-HD",
        "meta_object_id": "2020-061F",
        "meta_epoch": "2025-12-13T16:03:04.900608",
        "meta_mean_motion": 15.40352774,
        "meta_eccentricity": 0.00018317,
        "meta_inclination": 97.2215,
        "meta_ra_of_asc_node": 46.7546,
        "meta_arg_of_pericenter": 55.6098,
        "meta_mean_anomaly": 304.5322,
        "meta_ephemeris_type": 0,
        "meta_classification_type": "U",
        "meta_norad_cat_id": 46277,
        "meta_element_set_no": 999,
        "meta_rev_at_epoch": 29338,
        "meta_bstar": 0.00032120503,
        "meta_mean_motion_dot": 0.00012889,
        "meta_mean_motion_ddot": 0,
        "tle_line1": "1 46277U 20061F   25347.66880672  .00012889  00000+0  32121-3 0  9998",
        "tle_line2": "2 46277  97.2215  46.7546 0001831  55.6098 304.5322 15.40352774293384"
      },
      "geometry": {
        "type": "Point",
        "coordinates": [
          -69.46906035731237,
          81.90436633204524
        ]
      }
    },
    {
      "type": "Feature",
      "properties": {
        "norad_id": 46984,
        "name": "SENTINEL-6A",
        "group": "resource",
        "lat": -14.271276493209603,
        "lon": -14.646224111472431,
        "alt_km": 1339.597145656693,
        "timestamp": "2025-12-14T09:36:22.692299+00:00",
        "meta_object_name": "SENTINEL-6A",
        "meta_object_id": "2020-086A",
        "meta_epoch": "2025-12-13T15:43:25.244256",
        "meta_mean_motion": 12.80930598,
        "meta_eccentricity": 0.00077329,
        "meta_inclination": 66.0389,
        "meta_ra_of_asc_node": 160.4067,
        "meta_arg_of_pericenter": 269.2353,
        "meta_mean_anomaly": 90.7776,
        "meta_ephemeris_type": 0,
        "meta_classification_type": "U",
        "meta_norad_cat_id": 46984,
        "meta_element_set_no": 999,
        "meta_rev_at_epoch": 23656,
        "meta_bstar": 0.00012007547,
        "meta_mean_motion_dot": -3.3e-07,
        "meta_mean_motion_ddot": 0,
        "tle_line1": "1 46984U 20086A   25347.65515329 -.00000033  00000+0  12008-3 0  9994",
        "tle_line2": "2 46984  66.0389 160.4067 0007732 269.2353  90.7776 12.80930598236561"
      },
      "geometry": {
        "type": "Point",
        "coordinates": [
          -14.646224111472431,
          -14.271276493209603
        ]
      }
    },
    {
      "type": "Feature",
      "properties": {
        "norad_id": 48079,
        "name": "GAOFEN-12 02",
        "group": "resource",
        "lat": -19.10717284356653,
        "lon": 159.6113466996985,
        "alt_km": 632.848158580332,
        "timestamp": "2025-12-14T09:36:22.692309+00:00",
        "meta_object_name": "GAOFEN-12 02",
        "meta_object_id": "2021-026A",
        "meta_epoch": "2025-12-13T16:29:28.294656",
        "meta_mean_motion": 14.80676663,
        "meta_eccentricity": 0.00035622,
        "meta_inclination": 97.9852,
        "meta_ra_of_asc_node": 341.6889,
        "meta_arg_of_pericenter": 99.2153,
        "meta_mean_anomaly": 260.9462,
        "meta_ephemeris_type": 0,
        "meta_classification_type": "U",
        "meta_norad_cat_id": 48079,
        "meta_element_set_no": 999,
        "meta_rev_at_epoch": 25431,
        "meta_bstar": 0.00010886757,
        "meta_mean_motion_dot": 7.84e-06,
        "meta_mean_motion_ddot": 0,
        "tle_line1": "1 48079U 21026A   25347.68713304  .00000784  00000+0  10887-3 0  9997",
        "tle_line2": "2 48079  97.9852 341.6889 0003562  99.2153 260.9462 14.80676663254315"
      },
      "geometry": {
        "type": "Point",
        "coordinates": [
          159.6113466996985,
          -19.10717284356653
        ]
      }
    },
    {
      "type": "Feature",
      "properties": {
        "norad_id": 48268,
        "name": "PLEIADES NEO 3",
        "group": "resource",
        "lat": -81.83315264359264,
        "lon": 136.01370341041385,
        "alt_km": 632.2898712216302,
        "timestamp": "2025-12-14T09:36:22.692319+00:00",
        "meta_object_name": "PLEIADES NEO 3",
        "meta_object_id": "2021-034A",
        "meta_epoch": "2025-12-13T16:10:27.146784",
        "meta_mean_motion": 14.81676233,
        "meta_eccentricity": 0.00012932,
        "meta_inclination": 97.894,
        "meta_ra_of_asc_node": 60.1013,
        "meta_arg_of_pericenter": 92.6887,
        "meta_mean_anomaly": 267.4474,
        "meta_ephemeris_type": 0,
        "meta_classification_type": "U",
        "meta_norad_cat_id": 48268,
        "meta_element_set_no": 999,
        "meta_rev_at_epoch": 25018,
        "meta_bstar": 0.00027975636,
        "meta_mean_motion_dot": 2.15e-05,
        "meta_mean_motion_ddot": 0,
        "tle_line1": "1 48268U 21034A   25347.67392531  .00002150  00000+0  27976-3 0  9996",
        "tle_line2": "2 48268  97.8940  60.1013 0001293  92.6887 267.4474 14.81676233250184"
      },
      "geometry": {
        "type": "Point",
        "coordinates": [
          136.01370341041385,
          -81.83315264359264
        ]
      }
    },
    {
      "type": "Feature",
      "properties": {
        "norad_id": 49070,
        "name": "PLEIADES NEO 4",
        "group": "resource",
        "lat": 81.81224162732973,
        "lon": -44.539004210406446,
        "alt_km": 615.7172072369167,
        "timestamp": "2025-12-14T09:36:22.692329+00:00",
        "meta_object_name": "PLEIADES NEO 4",
        "meta_object_id": "2021-073E",
        "meta_epoch": "2025-12-12T08:34:07.569120",
        "meta_mean_motion": 14.81676895,
        "meta_eccentricity": 0.00012379,
        "meta_inclination": 97.8941,
        "meta_ra_of_asc_node": 58.7994,
        "meta_arg_of_pericenter": 92.1719,
        "meta_mean_anomaly": 267.9635,
        "meta_ephemeris_type": 0,
        "meta_classification_type": "U",
        "meta_norad_cat_id": 49070,
        "meta_element_set_no": 999,
        "meta_rev_at_epoch": 23370,
        "meta_bstar": 3.8133e-06,
        "meta_mean_motion_dot": -2.2e-07,
        "meta_mean_motion_ddot": 0,
        "tle_line1": "1 49070U 21073E   25346.35703205 -.00000022  00000+0  38133-5 0  9995",
        "tle_line2": "2 49070  97.8941  58.7994 0001237  92.1719 267.9635 14.81676895233702"
      },
      "geometry": {
        "type": "Point",
        "coordinates": [
          -44.539004210406446,
          81.81224162732973
        ]
      }
    },
    {
      "type": "Feature",
      "properties": {
        "norad_id": 49260,
        "name": "LANDSAT 9",
        "group": "resource",
        "lat": -37.510541885712016,
        "lon": 62.84981379421728,
        "alt_km": 709.4184867348376,
        "timestamp": "2025-12-14T09:36:22.692339+00:00",
        "meta_object_name": "LANDSAT 9",
        "meta_object_id": "2021-088A",
        "meta_epoch": "2025-12-13T15:39:04.728384",
        "meta_mean_motion": 14.57099195,
        "meta_eccentricity": 0.00011757,
        "meta_inclination": 98.2095,
        "meta_ra_of_asc_node": 55.7501,
        "meta_arg_of_pericenter": 89.6273,
        "meta_mean_anomaly": 270.506,
        "meta_ephemeris_type": 0,
        "meta_classification_type": "U",
        "meta_norad_cat_id": 49260,
        "meta_element_set_no": 999,
        "meta_rev_at_epoch": 22398,
        "meta_bstar": 0.00015445641,
        "meta_mean_motion_dot": 6.5e-06,
        "meta_mean_motion_ddot": 0,
        "tle_line1": "1 49260U 21088A   25347.65213806  .00000650  00000+0  15446-3 0  9995",
        "tle_line2": "2 49260  98.2095  55.7501 0001175  89.6273 270.5060 14.57099195223982"
      },
      "geometry": {
        "type": "Point",
        "coordinates": [
          62.84981379421728,
          -37.510541885712016
        ]
      }
    }
  ]
}